GLOBALSTAR M075         
1 37192U 10054E   24133.81851073 -.00000065  00000+0  21802-3 0  9995
2 37192  51.9955 320.5716 0000938 100.5485   2.1474 12.62273933625813
GLOBALSTAR M073         
1 37193U 10054F   24133.56148946 -.00000052  00000+0  28983-3 0  9999
2 37193  52.0055 234.8677 0000602 142.4270 231.0147 12.62265023627245
GLOBALSTAR M083         
1 37739U 11033A   24133.84682110 -.00000087  00000+0  94972-4 0  9990
2 37739  51.9840 183.2771 0000375  97.1566  74.6635 12.62270142596655
GLOBALSTAR M088         
1 37740U 11033B   24133.58281046 -.00000101  00000+0  16971-4 0  9996
2 37740  51.9731  89.9055 0000620  63.0806 108.9056 12.62267984591805
GLOBALSTAR M091         
1 37741U 11033C   24133.51669758 -.00000081  00000+0  12748-3 0  9994
2 37741  52.0017  52.9468 0000965  68.5112 102.1406 12.62262358592586
GLOBALSTAR M085         
1 37742U 11033D   24133.42454476 -.00000066  00000+0  21318-3 0  9990
2 37742  51.9891   4.6223 0001066  82.8619  89.3448 12.62270778593085
GLOBALSTAR M081         
1 37743U 11033E   24133.89113418 -.00000063  00000+0  22807-3 0  9991
2 37743  51.9981   5.7417 0001065  94.7364 278.3948 12.62264509593676
GLOBALSTAR M089         
1 37744U 11033F   24133.25308073 -.00000071  00000+0  18464-3 0  9998
2 37744  51.9939 321.9903 0000698 124.0925  46.9574 12.62263447594051
